{"fetched_at":"2026-07-19T17:31:08.183Z","source":"https://celestrak.org/NORAD/elements/gp.php?GROUP=kuiper&FORMAT=JSON","constellation":"kuiper","records":[{"OBJECT_NAME":"KUIPER-00044","OBJECT_ID":"2025-134F","EPOCH":"2026-07-18T19:02:39.823872","CLASSIFICATION_TYPE":"U","MEAN_MOTION":14.79932672,"ECCENTRICITY":0.00008195,"INCLINATION":51.901,"RA_OF_ASC_NODE":25.8137,"ARG_OF_PERICENTER":119.7956,"MEAN_ANOMALY":240.3088,"EPHEMERIS_TYPE":0,"NORAD_CAT_ID":64505,"ELEMENT_SET_NO":999,"REV_AT_EPOCH":5931,"BSTAR":0.000025912853,"MEAN_MOTION_DOT":-2.4e-7,"MEAN_MOTION_DDOT":0},{"OBJECT_NAME":"KUIPER-00046","OBJECT_ID":"2025-134G","EPOCH":"2026-07-19T05:38:36.260160","CLASSIFICATION_TYPE":"U","MEAN_MOTION":14.79942819,"ECCENTRICITY":0.00007064,"INCLINATION":51.9006,"RA_OF_ASC_NODE":21.3368,"ARG_OF_PERICENTER":121.6264,"MEAN_ANOMALY":238.4767,"EPHEMERIS_TYPE":0,"NORAD_CAT_ID":64506,"ELEMENT_SET_NO":999,"REV_AT_EPOCH":5941,"BSTAR":0.0002412317,"MEAN_MOTION_DOT":0.00001619,"MEAN_MOTION_DDOT":0},{"OBJECT_NAME":"KUIPER-00047","OBJECT_ID":"2025-134H","EPOCH":"2026-07-18T16:34:44.919552","CLASSIFICATION_TYPE":"U","MEAN_MOTION":14.79944532,"ECCENTRICITY":0.00005841,"INCLINATION":51.901,"RA_OF_ASC_NODE":356.2682,"ARG_OF_PERICENTER":123.0861,"MEAN_ANOMALY":237.0157,"EPHEMERIS_TYPE":0,"NORAD_CAT_ID":64507,"ELEMENT_SET_NO":999,"REV_AT_EPOCH":5971,"BSTAR":0.00022977138,"MEAN_MOTION_DOT":0.00001531,"MEAN_MOTION_DDOT":0},{"OBJECT_NAME":"KUIPER-00048","OBJECT_ID":"2025-134J","EPOCH":"2026-07-18T20:37:51.555072","CLASSIFICATION_TYPE":"U","MEAN_MOTION":14.79921894,"ECCENTRICITY":0.00009273,"INCLINATION":51.9008,"RA_OF_ASC_NODE":355.5349,"ARG_OF_PERICENTER":119.3546,"MEAN_ANOMALY":240.7509,"EPHEMERIS_TYPE":0,"NORAD_CAT_ID":64508,"ELEMENT_SET_NO":999,"REV_AT_EPOCH":5974,"BSTAR":0.00060680263,"MEAN_MOTION_DOT":0.00004406,"MEAN_MOTION_DDOT":0},{"OBJECT_NAME":"KUIPER-00049","OBJECT_ID":"2025-134K","EPOCH":"2026-07-18T21:07:05.068128","CLASSIFICATION_TYPE":"U","MEAN_MOTION":14.79931248,"ECCENTRICITY":0.00006336,"INCLINATION":51.9021,"RA_OF_ASC_NODE":7.9108,"ARG_OF_PERICENTER":120.3308,"MEAN_ANOMALY":239.7717,"EPHEMERIS_TYPE":0,"NORAD_CAT_ID":64509,"ELEMENT_SET_NO":999,"REV_AT_EPOCH":5957,"BSTAR":0.00023262282,"MEAN_MOTION_DOT":0.00001553,"MEAN_MOTION_DDOT":0},{"OBJECT_NAME":"KUIPER-00050","OBJECT_ID":"2025-134L","EPOCH":"2026-07-19T02:25:59.738304","CLASSIFICATION_TYPE":"U","MEAN_MOTION":14.79930927,"ECCENTRICITY":0.0000536,"INCLINATION":51.9019,"RA_OF_ASC_NODE":349.454,"ARG_OF_PERICENTER":118.9432,"MEAN_ANOMALY":241.1584,"EPHEMERIS_TYPE":0,"NORAD_CAT_ID":64510,"ELEMENT_SET_NO":999,"REV_AT_EPOCH":5985,"BSTAR":0.00012147253,"MEAN_MOTION_DOT":0.00000705,"MEAN_MOTION_DDOT":0},{"OBJECT_NAME":"KUIPER-00051","OBJECT_ID":"2025-134M","EPOCH":"2026-07-18T18:55:17.550048","CLASSIFICATION_TYPE":"U","MEAN_MOTION":14.79937166,"ECCENTRICITY":0.00006174,"INCLINATION":51.9019,"RA_OF_ASC_NODE":7.0092,"ARG_OF_PERICENTER":120.3181,"MEAN_ANOMALY":239.7842,"EPHEMERIS_TYPE":0,"NORAD_CAT_ID":64511,"ELEMENT_SET_NO":999,"REV_AT_EPOCH":5957,"BSTAR":0.00021986327,"MEAN_MOTION_DOT":0.00001455,"MEAN_MOTION_DDOT":0},{"OBJECT_NAME":"KUIPER-00053","OBJECT_ID":"2025-134P","EPOCH":"2026-07-19T03:24:21.036960","CLASSIFICATION_TYPE":"U","MEAN_MOTION":14.81691535,"ECCENTRICITY":0.00004664,"INCLINATION":51.9025,"RA_OF_ASC_NODE":0.6409,"ARG_OF_PERICENTER":346.1336,"MEAN_ANOMALY":13.9614,"EPHEMERIS_TYPE":0,"NORAD_CAT_ID":64513,"ELEMENT_SET_NO":999,"REV_AT_EPOCH":5969,"BSTAR":0.00018899951,"MEAN_MOTION_DOT":0.00001278,"MEAN_MOTION_DDOT":0},{"OBJECT_NAME":"KUIPER-00054","OBJECT_ID":"2025-134Q","EPOCH":"2026-07-19T03:02:58.193952","CLASSIFICATION_TYPE":"U","MEAN_MOTION":14.79951144,"ECCENTRICITY":0.00008221,"INCLINATION":51.9007,"RA_OF_ASC_NODE":356.8307,"ARG_OF_PERICENTER":138.2068,"MEAN_ANOMALY":221.8957,"EPHEMERIS_TYPE":0,"NORAD_CAT_ID":64514,"ELEMENT_SET_NO":999,"REV_AT_EPOCH":5974,"BSTAR":0.00024663311,"MEAN_MOTION_DOT":0.0000166,"MEAN_MOTION_DDOT":0},{"OBJECT_NAME":"KUIPER-00055","OBJECT_ID":"2025-134R","EPOCH":"2026-07-19T00:13:39.648288","CLASSIFICATION_TYPE":"U","MEAN_MOTION":14.79935175,"ECCENTRICITY":0.00005715,"INCLINATION":51.9036,"RA_OF_ASC_NODE":309.9853,"ARG_OF_PERICENTER":146.6025,"MEAN_ANOMALY":213.4974,"EPHEMERIS_TYPE":0,"NORAD_CAT_ID":64515,"ELEMENT_SET_NO":999,"REV_AT_EPOCH":6039,"BSTAR":0.000037807943,"MEAN_MOTION_DOT":6.7e-7,"MEAN_MOTION_DDOT":0},{"OBJECT_NAME":"KUIPER-00056","OBJECT_ID":"2025-134S","EPOCH":"2026-07-19T03:43:50.809152","CLASSIFICATION_TYPE":"U","MEAN_MOTION":14.79932749,"ECCENTRICITY":0.00007277,"INCLINATION":51.9052,"RA_OF_ASC_NODE":1.8017,"ARG_OF_PERICENTER":121.2031,"MEAN_ANOMALY":238.9003,"EPHEMERIS_TYPE":0,"NORAD_CAT_ID":64516,"ELEMENT_SET_NO":999,"REV_AT_EPOCH":5968,"BSTAR":0.000089949868,"MEAN_MOTION_DOT":0.00000465,"MEAN_MOTION_DDOT":0},{"OBJECT_NAME":"KUIPER-00057","OBJECT_ID":"2025-134T","EPOCH":"2026-07-18T21:03:12.201984","CLASSIFICATION_TYPE":"U","MEAN_MOTION":14.79927278,"ECCENTRICITY":0.00005628,"INCLINATION":51.9003,"RA_OF_ASC_NODE":10.4609,"ARG_OF_PERICENTER":127.6346,"MEAN_ANOMALY":232.4667,"EPHEMERIS_TYPE":0,"NORAD_CAT_ID":64517,"ELEMENT_SET_NO":999,"REV_AT_EPOCH":5953,"BSTAR":0.0001861643,"MEAN_MOTION_DOT":0.00001198,"MEAN_MOTION_DDOT":0},{"OBJECT_NAME":"KUIPER-00058","OBJECT_ID":"2025-134U","EPOCH":"2026-07-18T17:07:51.233952","CLASSIFICATION_TYPE":"U","MEAN_MOTION":14.79938991,"ECCENTRICITY":0.00005962,"INCLINATION":51.9029,"RA_OF_ASC_NODE":6.1555,"ARG_OF_PERICENTER":121.3649,"MEAN_ANOMALY":238.7371,"EPHEMERIS_TYPE":0,"NORAD_CAT_ID":64518,"ELEMENT_SET_NO":999,"REV_AT_EPOCH":5958,"BSTAR":0.0002074413,"MEAN_MOTION_DOT":0.00001361,"MEAN_MOTION_DDOT":0},{"OBJECT_NAME":"KUIPER-00059","OBJECT_ID":"2025-134V","EPOCH":"2026-07-18T20:30:07.233696","CLASSIFICATION_TYPE":"U","MEAN_MOTION":14.79932333,"ECCENTRICITY":0.00006659,"INCLINATION":51.9018,"RA_OF_ASC_NODE":0.5748,"ARG_OF_PERICENTER":125.0653,"MEAN_ANOMALY":235.0372,"EPHEMERIS_TYPE":0,"NORAD_CAT_ID":64519,"ELEMENT_SET_NO":999,"REV_AT_EPOCH":5967,"BSTAR":0.000048881626,"MEAN_MOTION_DOT":0.00000152,"MEAN_MOTION_DDOT":0},{"OBJECT_NAME":"KUIPER-00060","OBJECT_ID":"2025-134W","EPOCH":"2026-07-18T19:41:30.888096","CLASSIFICATION_TYPE":"U","MEAN_MOTION":14.7993213,"ECCENTRICITY":0.00006102,"INCLINATION":51.9035,"RA_OF_ASC_NODE":0.7893,"ARG_OF_PERICENTER":114.5372,"MEAN_ANOMALY":245.5654,"EPHEMERIS_TYPE":0,"NORAD_CAT_ID":64520,"ELEMENT_SET_NO":999,"REV_AT_EPOCH":5965,"BSTAR":0.000067881856,"MEAN_MOTION_DOT":0.00000296,"MEAN_MOTION_DDOT":0},{"OBJECT_NAME":"KUIPER-00061","OBJECT_ID":"2025-134X","EPOCH":"2026-07-19T04:24:45.112608","CLASSIFICATION_TYPE":"U","MEAN_MOTION":14.79935173,"ECCENTRICITY":0.00008024,"INCLINATION":51.9027,"RA_OF_ASC_NODE":6.6334,"ARG_OF_PERICENTER":125.8365,"MEAN_ANOMALY":234.2672,"EPHEMERIS_TYPE":0,"NORAD_CAT_ID":64521,"ELEMENT_SET_NO":999,"REV_AT_EPOCH":5960,"BSTAR":0.00025083039,"MEAN_MOTION_DOT":0.00001692,"MEAN_MOTION_DDOT":0}]}
