[
  {
    "name": "KUIPER-00044",
    "noradId": "64505",
    "line1": "1 64505U 25134F   26199.79351648 -.00000024  00000+0  25913-4 0  9995",
    "line2": "2 64505  51.9010  25.8137 0000819 119.7956 240.3088 14.79932672 59313"
  },
  {
    "name": "KUIPER-00046",
    "noradId": "64506",
    "line1": "1 64506U 25134G   26200.23514190  .00001619  00000+0  24123-3 0  9992",
    "line2": "2 64506  51.9006  21.3368 0000706 121.6264 238.4767 14.79942819 59412"
  },
  {
    "name": "KUIPER-00047",
    "noradId": "64507",
    "line1": "1 64507U 25134H   26199.69079768  .00001531  00000+0  22977-3 0  9995",
    "line2": "2 64507  51.9010 356.2682 0000584 123.0861 237.0157 14.79944532 59715"
  },
  {
    "name": "KUIPER-00048",
    "noradId": "64508",
    "line1": "1 64508U 25134J   26199.85962448  .00004406  00000+0  60680-3 0  9997",
    "line2": "2 64508  51.9008 355.5349 0000927 119.3546 240.7509 14.79921894 59745"
  },
  {
    "name": "KUIPER-00049",
    "noradId": "64509",
    "line1": "1 64509U 25134K   26199.87991977  .00001553  00000+0  23262-3 0  9994",
    "line2": "2 64509  51.9021   7.9108 0000633 120.3308 239.7717 14.79931248 59578"
  },
  {
    "name": "KUIPER-00050",
    "noradId": "64510",
    "line1": "1 64510U 25134L   26200.10138586  .00000705  00000+0  12147-3 0  9992",
    "line2": "2 64510  51.9019 349.4540 0000536 118.9432 241.1584 14.79930927 59857"
  },
  {
    "name": "KUIPER-00051",
    "noradId": "64511",
    "line1": "1 64511U 25134M   26199.78839757  .00001455  00000+0  21986-3 0  9996",
    "line2": "2 64511  51.9019   7.0092 0000617 120.3181 239.7842 14.79937166 59576"
  },
  {
    "name": "KUIPER-00053",
    "noradId": "64513",
    "line1": "1 64513U 25134P   26200.14191015  .00001278  00000+0  18900-3 0  9994",
    "line2": "2 64513  51.9025   0.6409 0000466 346.1336  13.9614 14.81691535 59690"
  },
  {
    "name": "KUIPER-00054",
    "noradId": "64514",
    "line1": "1 64514U 25134Q   26200.12706243  .00001660  00000+0  24663-3 0  9996",
    "line2": "2 64514  51.9007 356.8307 0000822 138.2068 221.8957 14.79951144 59740"
  },
  {
    "name": "KUIPER-00055",
    "noradId": "64515",
    "line1": "1 64515U 25134R   26200.00948667  .00000067  00000+0  37808-4 0  9998",
    "line2": "2 64515  51.9036 309.9853 0000571 146.6025 213.4974 14.79935175 60390"
  },
  {
    "name": "KUIPER-00056",
    "noradId": "64516",
    "line1": "1 64516U 25134S   26200.15544918  .00000465  00000+0  89950-4 0  9993",
    "line2": "2 64516  51.9052   1.8017 0000727 121.2031 238.9003 14.79932749 59687"
  },
  {
    "name": "KUIPER-00057",
    "noradId": "64517",
    "line1": "1 64517U 25134T   26199.87722456  .00001198  00000+0  18616-3 0  9999",
    "line2": "2 64517  51.9003  10.4609 0000562 127.6346 232.4667 14.79927278 59533"
  },
  {
    "name": "KUIPER-00058",
    "noradId": "64518",
    "line1": "1 64518U 25134U   26199.71378743  .00001361  00000+0  20744-3 0  9996",
    "line2": "2 64518  51.9029   6.1555 0000596 121.3649 238.7371 14.79938991 59588"
  },
  {
    "name": "KUIPER-00059",
    "noradId": "64519",
    "line1": "1 64519U 25134V   26199.85425039  .00000152  00000+0  48882-4 0  9994",
    "line2": "2 64519  51.9018   0.5748 0000665 125.0653 235.0372 14.79932333 59677"
  },
  {
    "name": "KUIPER-00060",
    "noradId": "64520",
    "line1": "1 64520U 25134W   26199.82049639  .00000296  00000+0  67882-4 0  9991",
    "line2": "2 64520  51.9035   0.7893 0000610 114.5372 245.5654 14.79932130 59654"
  },
  {
    "name": "KUIPER-00061",
    "noradId": "64521",
    "line1": "1 64521U 25134X   26200.18385547  .00001692  00000+0  25083-3 0  9992",
    "line2": "2 64521  51.9027   6.6334 0000802 125.8365 234.2672 14.79935173 59601"
  }
]